STARLINK-30525
1 58012U 23153X   26061.16668981  .02055283  00000+0  79685-1 0  9990
2 58012  43.0000 109.2146 0001429 250.1935 316.9374 15.21843189  5717
